IRIDIUM 144             
1 43249U 18030A   24016.30998902  .00000490  00000+0  16796-3 0  9991
2 43249  86.3976 299.3905 0001979  81.7393 278.4027 14.34218883303612
IRIDIUM 149             
1 43250U 18030B   24015.82794553  .00000463  00000+0  15824-3 0  9996
2 43250  86.3976 299.5687 0001872  83.5647 276.5762 14.34217387303542
IRIDIUM 157             
1 43251U 18030C   24016.33536177  .00000171  00000+0  54145-4 0  9996
2 43251  86.3976 299.3909 0002326  87.9673 272.1789 14.34218546303594
IRIDIUM 140             
1 43252U 18030D   24015.86600953 -.00000060  00000+0 -28639-4 0  9996
2 43252  86.3976 299.6011 0001723  74.5697 285.5689 14.34217238303583
IRIDIUM 145             
1 43253U 18030E   24015.85332365 -.00000039  00000+0 -21127-4 0  9996
2 43253  86.3974 299.5803 0001664  82.6987 277.4398 14.34217222303519
IRIDIUM 146             
1 43254U 18030F   24016.32267596  .00000188  00000+0  60168-4 0  9994
2 43254  86.3978 299.3993 0001850  84.4060 275.7347 14.34216748303596
IRIDIUM 148             
1 43255U 18030G   24015.87233718  .00000610  00000+0  21071-3 0  9992
2 43255  86.3978 299.6176 0001943  95.5487 264.5930 14.34225153303563
IRIDIUM 142             
1 43256U 18030H   24016.18946943  .00000620  00000+0  21423-3 0  9991
2 43256  86.3969 299.4045 0001950  90.3257 269.8162 14.34213383303571
